NORAD_CAT_ID,OBJECT_NAME,OBJECT_TYPE,EPOCH,MEAN_MOTION,ECCENTRICITY,INCLINATION,RA_OF_ASC_NODE,ARG_OF_PERICENTER,MEAN_ANOMALY,BSTAR,MEAN_MOTION_DOT,MEAN_MOTION_DDOT,TLE_LINE0,TLE_LINE1,TLE_LINE2,SEMIMAJOR_AXIS,PERIOD,APOGEE,PERIGEE,DECAYED
52557.0,STARLINK-3943,PAYLOAD,2023-02-16 20:14:46,15.08796667,0.000314,53.2123,102.8374,86.0335,274.1016,-0.0018702,-0.00029898,0.0,0 STARLINK-3943,1 52557U 22051AA  23047.84359496 -.00029898  00000-0 -18702-2 0  9996,2 52557  53.2123 102.8374 0003140  86.0335 274.1016 15.08796667 42844,6918.013,95.44,542.05,537.706,0.0
52557.0,STARLINK-3943,PAYLOAD,2023-02-17 04:11:42,15.08793583,0.0001347,53.2152,101.3524,134.4656,225.6446,0.00091306,0.00014255,0.0,0 STARLINK-3943,1 52557U 22051AA  23048.17479663  .00014255  00000-0  91306-3 0  9993,2 52557  53.2152 101.3524 0001347 134.4656 225.6446 15.08793583 42963,6918.022,95.44,540.819,538.955,0.0
52557.0,STARLINK-3943,PAYLOAD,2023-02-17 12:08:38,15.08807165,0.0001114,53.2147,99.8661,122.2969,237.8131,0.0020794,0.00032931,0.0,0 STARLINK-3943,1 52557U 22051AA  23048.50600568  .00032931  00000-0  20794-2 0  9993,2 52557  53.2147  99.8661 0001114 122.2969 237.8131 15.08807165 42940,6917.981,95.44,540.616,539.075,0.0
52557.0,STARLINK-3943,PAYLOAD,2023-02-17 20:05:35,15.0881677,0.0001115,53.2146,98.3793,118.5696,241.5408,0.0012093,0.00018998,0.0,0 STARLINK-3943,1 52557U 22051AA  23048.83721181  .00018998  00000-0  12093-2 0  9994,2 52557  53.2146  98.3793 0001115 118.5696 241.5408 15.08816770 42991,6917.951,95.439,540.588,539.045,0.0
52557.0,STARLINK-3943,PAYLOAD,2023-02-18 07:13:17,15.08832094,0.0001126,53.2146,96.298,117.5995,242.5112,0.0011412,0.00017917,0.0,0 STARLINK-3943,1 52557U 22051AA  23049.30089654  .00017917  00000-0  11412-2 0  9993,2 52557  53.2146  96.2980 0001126 117.5995 242.5112 15.08832094 43136,6917.905,95.438,540.549,538.991,0.0
52557.0,STARLINK-3943,PAYLOAD,2023-02-18 08:48:40,15.08835723,0.0001134,53.2144,96.0006,116.4906,243.6202,0.0012827,0.00020183,0.0,0 STARLINK-3943,1 52557U 22051AA  23049.36713686  .00020183  00000-0  12827-2 0  9998,2 52557  53.2144  96.0006 0001134 116.4906 243.6202 15.08835723 43077,6917.893,95.438,540.543,538.974,0.0
52557.0,STARLINK-3943,PAYLOAD,2023-02-19 11:50:12,15.08879038,0.0001105,53.2132,90.945,109.1052,251.006,0.0011483,0.00018054,0.0,0 STARLINK-3943,1 52557U 22051AA  23050.49320197  .00018054  00000-0  11483-2 0  9996,2 52557  53.2132  90.9450 0001105 109.1052 251.0060 15.08879038 43240,6917.761,95.435,540.39,538.862,0.0
52557.0,STARLINK-3943,PAYLOAD,2023-02-19 15:00:58,15.08885734,0.000108,53.2129,90.3492,110.79,249.3208,0.0012093,0.00019035,0.0,0 STARLINK-3943,1 52557U 22051AA  23050.62567764  .00019035  00000-0  12093-2 0  9992,2 52557  53.2129  90.3492 0001080 110.7900 249.3208 15.08885734 43332,6917.741,95.435,540.353,538.858,0.0
52557.0,STARLINK-3943,PAYLOAD,2023-02-19 19:47:08,15.08850556,0.0001207,53.2132,89.4574,100.9514,259.1614,-0.00017258,-3.034e-05,0.0,0 STARLINK-3943,1 52557U 22051AA  23050.82440293 -.00003034  00000-0 -17258-3 0  9994,2 52557  53.2132  89.4574 0001207 100.9514 259.1614 15.08850556 43366,6917.848,95.437,540.548,538.878,0.0
52557.0,STARLINK-3943,PAYLOAD,2023-02-20 10:05:36,15.08854468,0.000121,53.2138,86.7805,95.2039,264.9091,0.0012622,0.00019865,0.0,0 STARLINK-3943,1 52557U 22051AA  23051.42055921  .00019865  00000-0  12622-2 0  9997,2 52557  53.2138  86.7805 0001210  95.2039 264.9091 15.08854468 43382,6917.836,95.437,540.538,538.864,0.0
52557.0,STARLINK-3943,PAYLOAD,2023-02-21 13:07:10,15.08838553,0.0001386,53.2135,81.7215,93.4406,266.6745,0.00094296,0.0001475,0.0,0 STARLINK-3943,1 52557U 22051AA  23052.54664695  .00014750  00000-0  94296-3 0  9991,2 52557  53.2135  81.7215 0001386  93.4406 266.6745 15.08838553 43620,6917.885,95.438,540.709,538.791,0.0
52557.0,STARLINK-3943,PAYLOAD,2023-02-21 19:28:43,15.08832914,0.0001075,53.2148,80.5354,91.83,268.2815,0.00015848,2.235e-05,0.0,0 STARLINK-3943,1 52557U 22051AA  23052.81160880  .00002235  00000-0  15848-3 0  9999,2 52557  53.2148  80.5354 0001075  91.8300 268.2815 15.08832914 43660,6917.902,95.438,540.511,539.023,0.0
52557.0,STARLINK-3943,PAYLOAD,2023-02-22 12:57:58,15.08832014,0.0001361,53.2139,77.263,97.9008,262.2138,0.0005179,7.962e-05,0.0,0 STARLINK-3943,1 52557U 22051AA  23053.54025669  .00007962  00000-0  51790-3 0  9993,2 52557  53.2139  77.2630 0001361  97.9008 262.2138 15.08832014 43708,6917.905,95.438,540.711,538.828,0.0
52557.0,STARLINK-3943,PAYLOAD,2023-02-23 06:27:12,15.08858894,0.0001479,53.2138,73.9909,106.728,253.3874,0.0010252,0.00016074,0.0,0 STARLINK-3943,1 52557U 22051AA  23054.26889261  .00016074  00000-0  10252-2 0  9990,2 52557  53.2138  73.9909 0001479 106.7280 253.3874 15.08858894 43881,6917.823,95.436,540.711,538.664,0.0
52557.0,STARLINK-3943,PAYLOAD,2023-02-23 12:48:44,15.08869436,0.0001495,53.2139,72.801,108.7647,251.3507,0.0010547,0.00016551,0.0,0 STARLINK-3943,1 52557U 22051AA  23054.53384735  .00016551  00000-0  10547-2 0  9993,2 52557  53.2139  72.8010 0001495 108.7647 251.3507 15.08869436 43852,6917.79,95.436,540.69,538.621,0.0
52557.0,STARLINK-3943,PAYLOAD,2023-02-23 17:34:54,15.08844745,0.0001553,53.2147,71.9101,94.3597,265.7572,9.1781e-07,-2.73e-06,0.0,0 STARLINK-3943,1 52557U 22051AA  23054.73257162 -.00000273  00000-0  91781-6 0  9996,2 52557  53.2147  71.9101 0001553  94.3597 265.7572 15.08844745 43881,6917.866,95.437,540.805,538.657,0.0
52557.0,STARLINK-3943,PAYLOAD,2023-02-24 01:31:49,15.08848124,0.0001237,53.2146,70.4222,118.5432,241.5685,9.1002e-05,1.161e-05,0.0,0 STARLINK-3943,1 52557U 22051AA  23055.06376687  .00001161  00000-0  91002-4 0  9997,2 52557  53.2146  70.4222 0001237 118.5432 241.5685 15.08848124 44001,6917.856,95.437,540.576,538.865,0.0
52557.0,STARLINK-3943,PAYLOAD,2023-02-24 12:39:30,15.08867616,0.0001367,53.2148,68.3413,106.0171,254.0971,0.00090221,0.00014111,0.0,0 STARLINK-3943,1 52557U 22051AA  23055.52744094  .00014111  00000-0  90221-3 0  9999,2 52557  53.2148  68.3413 0001367 106.0171 254.0971 15.08867616 44001,6917.796,95.436,540.607,538.715,0.0
52557.0,STARLINK-3943,PAYLOAD,2023-02-24 17:25:41,15.08835222,0.0002584,53.2148,67.4489,83.5626,276.566,4.5861e-05,4.41e-06,0.0,0 STARLINK-3943,1 52557U 22051AA  23055.72617186  .00000441  00000-0  45861-4 0  9994,2 52557  53.2148  67.4489 0002584  83.5626 276.5660 15.08835222 44103,6917.895,95.438,541.548,537.972,0.0
52557.0,STARLINK-3943,PAYLOAD,2023-02-25 10:54:55,15.08825194,0.0001526,53.2157,64.1792,104.155,255.9612,0.00018477,2.653e-05,0.0,0 STARLINK-3943,1 52557U 22051AA  23056.45481431  .00002653  00000-0  18477-3 0  9996,2 52557  53.2157  64.1792 0001526 104.1550 255.9612 15.08825194 44144,6917.926,95.438,540.846,538.735,0.0
52557.0,STARLINK-3943,PAYLOAD,2023-02-25 17:16:28,15.08835495,0.0001354,53.2158,62.9903,95.3624,264.7523,0.00022518,3.297e-05,0.0,0 STARLINK-3943,1 52557U 22051AA  23056.71977422  .00003297  00000-0  22518-3 0  9991,2 52557  53.2158  62.9903 0001354  95.3624 264.7523 15.08835495 44185,6917.894,95.438,540.696,538.822,0.0
52557.0,STARLINK-3943,PAYLOAD,2023-02-25 23:38:00,15.08846052,0.0001269,53.2161,61.8004,95.8183,264.2953,0.00061291,9.482e-05,0.0,0 STARLINK-3943,1 52557U 22051AA  23056.98473307  .00009482  00000-0  61291-3 0  9996,2 52557  53.2161  61.8004 0001269  95.8183 264.2953 15.08846052 44294,6917.862,95.437,540.605,538.849,0.0
52557.0,STARLINK-3943,PAYLOAD,2023-02-26 12:21:05,15.0887332,0.0001338,53.2152,59.4213,91.3656,268.7489,0.0013181,0.00020771,0.0,0 STARLINK-3943,1 52557U 22051AA  23057.51464623  .00020771  00000-0  13181-2 0  9995,2 52557  53.2152  59.4213 0001338  91.3656 268.7489 15.08873320 44305,6917.779,95.435,540.569,538.718,0.0
52557.0,STARLINK-3943,PAYLOAD,2023-02-26 17:07:15,15.08839258,0.0001417,53.2153,58.5285,101.5075,258.6076,-0.00011074,-2.05e-05,0.0,0 STARLINK-3943,1 52557U 22051AA  23057.71337191 -.00002050  00000-0 -11074-3 0  9998,2 52557  53.2153  58.5285 0001417 101.5075 258.6076 15.08839258 44405,6917.883,95.438,540.728,538.767,0.0
52557.0,STARLINK-3943,PAYLOAD,2023-02-27 16:58:02,15.0889118,0.000143,53.215,54.0682,106.3644,253.7506,0.00381,0.00060958,0.0,0 STARLINK-3943,1 52557U 22051AA  23058.70696850  .00060958  00000-0  38100-2 0  9995,2 52557  53.2150  54.0682 0001430 106.3644 253.7506 15.08891180 44556,6917.724,95.434,540.578,538.6,0.0
52557.0,STARLINK-3943,PAYLOAD,2023-02-28 05:41:06,15.088952,0.0001262,53.2151,51.6892,106.0485,254.0646,0.0025245,0.0004018,0.0,0 STARLINK-3943,1 52557U 22051AA  23059.23687666  .00040180  00000-0  25245-2 0  9990,2 52557  53.2151  51.6892 0001262 106.0485 254.0646 15.08895200 44631,6917.712,95.434,540.45,538.704,0.0
52557.0,STARLINK-3943,PAYLOAD,2023-02-28 16:48:48,15.08846667,0.0001194,53.2142,49.6078,62.198,297.9133,0.0015656,0.00024721,0.0,0 STARLINK-3943,1 52557U 22051AA  23059.70055835  .00024721  00000-0  15656-2 0  9997,2 52557  53.2142  49.6078 0001194  62.1980 297.9133 15.08846667 44630,6917.86,95.437,540.551,538.899,0.0
52557.0,STARLINK-3943,PAYLOAD,2023-03-01 05:31:55,15.08783073,0.0001502,53.2149,47.2288,82.3638,277.7525,0.0011996,0.00018825,0.0,0 STARLINK-3943,1 52557U 22051AA  23060.23050274  .00018825  00000-0  11996-2 0  9990,2 52557  53.2149  47.2288 0001502  82.3638 277.7525 15.08783073 44789,6918.054,95.441,540.958,538.88,0.0
52557.0,STARLINK-3943,PAYLOAD,2023-03-01 16:39:38,15.08818611,0.0001656,53.2159,45.1481,79.3587,280.7591,0.0020215,0.00032012,0.0,0 STARLINK-3943,1 52557U 22051AA  23060.69419392  .00032012  00000-0  20215-2 0  9998,2 52557  53.2159  45.1481 0001656  79.3587 280.7591 15.08818611 44853,6917.946,95.439,540.956,538.665,0.0
52557.0,STARLINK-3943,PAYLOAD,2023-03-02 08:33:29,15.08874385,0.0001607,53.2153,42.1743,79.8993,280.2181,0.0023152,0.00036786,0.0,0 STARLINK-3943,1 52557U 22051AA  23061.35658865  .00036786  00000-0  23152-2 0  9997,2 52557  53.2153  42.1743 0001607  79.8993 280.2181 15.08874385 44880,6917.775,95.435,540.752,538.529,0.0
